[{
    "name": "Roomm",
    "phone": "2132088785",
    "city": "North Hollywood",
    "state": "California",
    "zip": "91616"
  }, {
    "name": "Lazzy",
    "phone": "5128587720",
    "city": "Austin",
    "state": "Texas",
    "zip": "78759"
  }, {
    "name": "Gigabox",
    "phone": "3609803809",
    "city": "Seattle",
    "state": "Washington",
    "zip": "98158"
  }, {
    "name": "Dabvine",
    "phone": "3123436659",
    "city": "Chicago",
    "state": "Illinois",
    "zip": "60619"
  }, {
    "name": "Cogilith",
    "phone": "8282865756",
    "city": "Asheville",
    "state": "North Carolina",
    "zip": "28815"
  }, {
    "name": "Jabbercube",
    "phone": "5597785882",
    "city": "Fresno",
    "state": "California",
    "zip": "93762"
  }, {
    "name": "Quatz",
    "phone": "9138029327",
    "city": "Shawnee Mission",
    "state": "Kansas",
    "zip": "66225"
  }, {
    "name": "Pixoboo",
    "phone": "8037106004",
    "city": "Columbia",
    "state": "South Carolina",
    "zip": "29208"
  }, {
    "name": "Skinder",
    "phone": "2024628251",
    "city": "Washington",
    "state": "District of Columbia",
    "zip": "20299"
  }, {
    "name": "Topicware",
    "phone": "4054065216",
    "city": "Norman",
    "state": "Oklahoma",
    "zip": "73071"
  }, {
    "name": "Einti",
    "phone": "9031318858",
    "city": "Tyler",
    "state": "Texas",
    "zip": "75799"
  }, {
    "name": "Wikibox",
    "phone": "3367520788",
    "city": "Greensboro",
    "state": "North Carolina",
    "zip": "27409"
  }, {
    "name": "Camido",
    "phone": "3175775674",
    "city": "Indianapolis",
    "state": "Indiana",
    "zip": "46247"
  }, {
    "name": "Jabbersphere",
    "phone": "2021094884",
    "city": "Washington",
    "state": "District of Columbia",
    "zip": "20220"
  }, {
    "name": "Thoughtstorm",
    "phone": "3166309870",
    "city": "Wichita",
    "state": "Kansas",
    "zip": "67210"
  }, {
    "name": "Pixoboo",
    "phone": "5089805668",
    "city": "Worcester",
    "state": "Massachusetts",
    "zip": "01605"
  }, {
    "name": "Realcube",
    "phone": "2148850996",
    "city": "Plano",
    "state": "Texas",
    "zip": "75074"
  }, {
    "name": "Oyoloo",
    "phone": "3146896444",
    "city": "Saint Louis",
    "state": "Missouri",
    "zip": "63126"
  }, {
    "name": "Twimbo",
    "phone": "2025627322",
    "city": "Washington",
    "state": "District of Columbia",
    "zip": "20226"
  }, {
    "name": "Rhyloo",
    "phone": "2152995973",
    "city": "Philadelphia",
    "state": "Pennsylvania",
    "zip": "19125"
  }, {
    "name": "Yombu",
    "phone": "2515169537",
    "city": "Mobile",
    "state": "Alabama",
    "zip": "36689"
  }, {
    "name": "Jaxworks",
    "phone": "7579333774",
    "city": "Newport News",
    "state": "Virginia",
    "zip": "23605"
  }, {
    "name": "Jabbercube",
    "phone": "8179199083",
    "city": "Arlington",
    "state": "Texas",
    "zip": "76004"
  }, {
    "name": "Buzzbean",
    "phone": "3344534126",
    "city": "Montgomery",
    "state": "Alabama",
    "zip": "36134"
  }, {
    "name": "Wordpedia",
    "phone": "2091362692",
    "city": "Stockton",
    "state": "California",
    "zip": "95210"
  }, {
    "name": "Jabbersphere",
    "phone": "8068119717",
    "city": "Amarillo",
    "state": "Texas",
    "zip": "79159"
  }, {
    "name": "Gigazoom",
    "phone": "2814765155",
    "city": "Houston",
    "state": "Texas",
    "zip": "77055"
  }, {
    "name": "Skinix",
    "phone": "3038640642",
    "city": "Englewood",
    "state": "Colorado",
    "zip": "80150"
  }, {
    "name": "Buzzbean",
    "phone": "2022708445",
    "city": "Washington",
    "state": "District of Columbia",
    "zip": "20337"
  }, {
    "name": "Photobean",
    "phone": "4787630985",
    "city": "Macon",
    "state": "Georgia",
    "zip": "31296"
  }, {
    "name": "Kwideo",
    "phone": "9014215522",
    "city": "Memphis",
    "state": "Tennessee",
    "zip": "38114"
  }]